EPOCH,NORAD_CAT_ID,MEAN_MOTION,ECCENTRICITY,INCLINATION,RA_OF_ASC_NODE,ARG_OF_PERICENTER,MEAN_ANOMALY,MEAN_MOTION_DOT,BSTAR,TLE_LINE1,TLE_LINE2
2023-02-11 17:55:22.372608,50803,15.08848022,0.00012950,53.2142,165.7244,88.9420,271.1720,0.00002998,0.00020631000000,1 50803U 22001A   23042.74678672  .00002998  00000-0  20631-3 0  9992,2 50803  53.2142 165.7244 0001295  88.9420 271.1720 15.08848022 62301
2023-02-12 09:49:13.955520,50803,15.08840945,0.00015120,53.2135,162.7475,114.6177,245.4972,0.00002020,0.00014497000000,1 50803U 22001A   23043.40918930  .00002020  00000-0  14497-3 0  9999,2 50803  53.2135 162.7475 0001512 114.6177 245.4972 15.08840945 61133
2023-02-12 09:49:13.955520,50803,15.08840945,0.00015120,53.2135,162.7475,114.6177,245.4972,0.00002020,0.00014497000000,1 50803U 22001A   23043.40918930  .00002020  00000-0  14497-3 0  9999,2 50803  53.2135 162.7475 0001512 114.6177 245.4972 15.08840945 62404
2023-02-13 09:40:01.835328,50803,15.08826445,0.00014420,53.2154,158.2899,118.4939,241.6198,0.00001626,0.00012029000000,1 50803U 22001A   23044.40279902  .00001626  00000-0  12029-3 0  9999,2 50803  53.2154 158.2899 0001442 118.4939 241.6198 15.08826445 62558
2023-02-13 14:26:11.134464,50803,15.08829552,0.00010350,53.2161,157.3986,106.9752,253.1353,0.00002454,0.00017227000000,1 50803U 22001A   23044.60151776  .00002454  00000-0  17227-3 0  9994,2 50803  53.2161 157.3986 0001035 106.9752 253.1353 15.08829552 61312
2023-02-13 23:58:29.295552,50803,15.08844778,0.00011140,53.2161,155.6138,100.4810,259.6308,-0.00000487,-0.00001253300000,1 50803U 22001A   23044.99895018 -.00000487  00000-0 -12533-4 0  9992,2 50803  53.2161 155.6138 0001114 100.4810 259.6308 15.08844778 62649
2023-02-14 09:30:49.298688,50803,15.08828796,0.00011580,53.2152,153.8292,98.4052,261.7071,-0.00001027,-0.00004644600000,1 50803U 22001A   23045.39640392 -.00001027  00000-0 -46446-4 0  9991,2 50803  53.2152 153.8292 0001158  98.4052 261.7071 15.08828796 62702
2023-02-14 14:16:58.399104,50803,15.08832948,0.00005240,53.2164,152.9410,67.9572,292.1476,-0.00000615,-0.00002058100000,1 50803U 22001A   23045.59512036 -.00000615  00000-0 -20581-4 0  9990,2 50803  53.2164 152.9410 0000524  67.9572 292.1476 15.08832948 61464
2023-02-14 15:52:20.281440,50803,15.08854034,0.00011550,53.2160,152.6390,76.2682,283.8438,0.00000138,0.00002675200000,1 50803U 22001A   23045.66134585  .00000138  00000-0  26752-4 0  9991,2 50803  53.2160 152.6390 0001155  76.2682 283.8438 15.08854034 61476
2023-02-14 15:52:20.281440,50803,15.08854034,0.00011550,53.2160,152.6390,76.2682,283.8438,0.00000138,0.00002675200000,1 50803U 22001A   23045.66134585  .00000138  00000-0  26752-4 0  9991,2 50803  53.2160 152.6390 0001155  76.2682 283.8438 15.08854034 62747
2023-02-14 23:49:16.316544,50803,15.08847118,0.00008710,53.2155,151.1543,100.9327,259.1763,-0.00000847,-0.00003513900000,1 50803U 22001A   23045.99254996 -.00000847  00000-0 -35139-4 0  9994,2 50803  53.2155 151.1543 0000871 100.9327 259.1763 15.08847118 62797
2023-02-15 10:56:59.218080,50803,15.08829327,0.00009030,53.2160,149.0716,116.8962,243.2122,0.00001830,0.00013309000000,1 50803U 22001A   23046.45624095  .00001830  00000-0  13309-3 0  9992,2 50803  53.2160 149.0716 0000903 116.8962 243.2122 15.08829327 62861
2023-02-15 12:32:21.299136,50803,15.08845412,0.00010710,53.2157,148.7731,99.3512,260.7601,0.00003957,0.00026649000000,1 50803U 22001A   23046.52246874  .00003957  00000-0  26649-3 0  9998,2 50803  53.2157 148.7731 0001071  99.3512 260.7601 15.08845412 61603
2023-02-15 15:43:06.955968,50803,15.08853397,0.00011930,53.2155,148.1771,112.4751,247.6367,0.00004514,0.00030140000000,1 50803U 22001A   23046.65494162  .00004514  00000-0  30140-3 0  9998,2 50803  53.2155 148.1771 0001193 112.4751 247.6367 15.08853397 61622
2023-02-15 15:43:06.955968,50803,15.08853397,0.00011930,53.2155,148.1771,112.4751,247.6367,0.00004514,0.00030140000000,1 50803U 22001A   23046.65494162  .00004514  00000-0  30140-3 0  9998,2 50803  53.2155 148.1771 0001193 112.4751 247.6367 15.08853397 62892
2023-02-16 10:47:45.351744,50803,15.08841738,0.00009050,53.2151,144.6106,99.1757,260.9338,0.00002708,0.00018815000000,1 50803U 22001A   23047.44983046  .00002708  00000-0  18815-3 0  9998,2 50803  53.2151 144.6106 0000905  99.1757 260.9338 15.08841738 63015
2023-02-16 12:23:08.024640,50803,15.08854267,0.00009260,53.2146,144.3134,103.5543,256.5552,0.00001104,0.00008740000000,1 50803U 22001A   23047.51606510  .00001104  00000-0  87400-4 0  9990,2 50803  53.2146 144.3134 0000926 103.5543 256.5552 15.08854267 61752
2023-02-16 15:33:53.455968,50803,15.08864240,0.00010550,53.2142,143.7182,113.0205,247.0898,0.00002480,0.00017372000000,1 50803U 22001A   23047.64853537  .00002480  00000-0  17372-3 0  9995,2 50803  53.2142 143.7182 0001055 113.0205 247.0898 15.08864240 61771
2023-02-16 15:33:53.455968,50803,15.08864240,0.00010550,53.2142,143.7182,113.0205,247.0898,0.00002480,0.00017372000000,1 50803U 22001A   23047.64853537  .00002480  00000-0  17372-3 0  9995,2 50803  53.2142 143.7182 0001055 113.0205 247.0898 15.08864240 63043
2023-02-17 12:13:56.923968,50803,15.08818823,0.00008350,53.2150,139.8542,66.6773,293.4307,-0.00003305,-0.00018980000000,1 50803U 22001A   23048.50968662 -.00003305  00000-0 -18980-3 0  9992,2 50803  53.2150 139.8542 0000835  66.6773 293.4307 15.08818823 61905
2023-02-17 12:13:56.923968,50803,15.08818823,0.00008350,53.2150,139.8542,66.6773,293.4307,-0.00003305,-0.00018980000000,1 50803U 22001A   23048.50968662 -.00003305  00000-0 -18980-3 0  9992,2 50803  53.2150 139.8542 0000835  66.6773 293.4307 15.08818823 63176
2023-02-18 00:57:02.094912,50803,15.08827376,0.00010590,53.2142,137.4732,83.5243,276.5870,-0.00000781,-0.00003098800000,1 50803U 22001A   23049.03960758 -.00000781  00000-0 -30988-4 0  9997,2 50803  53.2142 137.4732 0001059  83.5243 276.5870 15.08827376 63250
2023-02-18 12:04:43.568256,50803,15.08845323,0.00011990,53.2146,135.3934,65.7237,294.3880,0.00002184,0.00015527000000,1 50803U 22001A   23049.50328204  .00002184  00000-0  15527-3 0  9991,2 50803  53.2146 135.3934 0001199  65.7237 294.3880 15.08845323 62053
2023-02-18 12:04:43.568256,50803,15.08845323,0.00011990,53.2146,135.3934,65.7237,294.3880,0.00002184,0.00015527000000,1 50803U 22001A   23049.50328204  .00002184  00000-0  15527-3 0  9991,2 50803  53.2146 135.3934 0001199  65.7237 294.3880 15.08845323 63324
2023-02-19 02:23:12.389280,50803,15.08836692,0.00013160,53.2141,132.7161,81.2714,278.8427,0.00005397,0.00035695000000,1 50803U 22001A   23050.09944895  .00005397  00000-0  35695-3 0  9994,2 50803  53.2141 132.7161 0001316  81.2714 278.8427 15.08836692 63419
2023-02-19 11:55:30.951264,50803,15.08843940,0.00012040,53.2144,130.9321,83.1227,276.9902,0.00006193,0.00040679000000,1 50803U 22001A   23050.49688601  .00006193  00000-0  40679-3 0  9991,2 50803  53.2144 130.9321 0001204  83.1227 276.9902 15.08843940 62203
2023-02-20 11:46:17.723424,50803,15.08846391,0.00010450,53.2146,126.4731,84.9563,275.1549,0.00001562,0.00011615000000,1 50803U 22001A   23051.49048291  .00001562  00000-0  11615-3 0  9990,2 50803  53.2146 126.4731 0001045  84.9563 275.1549 15.08846391 62352
2023-02-20 11:46:17.723424,50803,15.08846391,0.00010450,53.2146,126.4731,84.9563,275.1549,0.00001562,0.00011615000000,1 50803U 22001A   23051.49048291  .00001562  00000-0  11615-3 0  9990,2 50803  53.2146 126.4731 0001045  84.9563 275.1549 15.08846391 63623
2023-02-21 02:04:46.172064,50803,15.08837750,0.00011740,53.2142,123.7969,89.0859,271.0268,-0.00000568,-0.00001762100000,1 50803U 22001A   23052.08664551 -.00000568  00000-0 -17621-4 0  9990,2 50803  53.2142 123.7969 0001174  89.0859 271.0268 15.08837750 63711
2023-02-21 11:37:04.335744,50803,15.08849593,0.00011870,53.2148,122.0125,89.7158,270.3971,0.00001897,0.00013721000000,1 50803U 22001A   23052.48407796  .00001897  00000-0  13721-3 0  9990,2 50803  53.2148 122.0125 0001187  89.7158 270.3971 15.08849593 62503
2023-02-21 11:37:04.335744,50803,15.08849593,0.00011870,53.2148,122.0125,89.7158,270.3971,0.00001897,0.00013721000000,1 50803U 22001A   23052.48407796  .00001897  00000-0  13721-3 0  9990,2 50803  53.2148 122.0125 0001187  89.7158 270.3971 15.08849593 63773
2023-02-22 03:30:55.913472,50803,15.08840381,0.00011670,53.2147,119.0393,102.2262,257.8860,0.00000613,0.00005661300000,1 50803U 22001A   23053.14648048  .00000613  00000-0  56613-4 0  9994,2 50803  53.2147 119.0393 0001167 102.2262 257.8860 15.08840381 63874
2023-02-22 09:52:28.839360,50803,15.08837195,0.00011010,53.2148,117.8486,93.0215,267.0903,0.00000738,0.00006444900000,1 50803U 22001A   23053.41144490  .00000738  00000-0  64449-4 0  9990,2 50803  53.2148 117.8486 0001101  93.0215 267.0903 15.08837195 62641
2023-02-22 21:00:10.789632,50803,15.08838015,0.00011320,53.2148,115.7668,93.9230,266.1891,0.00000281,0.00003575000000,1 50803U 22001A   23053.87512488  .00000281  00000-0  35750-4 0  9992,2 50803  53.2148 115.7668 0001132  93.9230 266.1891 15.08838015 62716
2023-02-23 01:46:20.967456,50803,15.08826994,0.00011670,53.2148,114.8744,101.8966,258.2157,-0.00000419,-0.00000823640000,1 50803U 22001A   23054.07385379 -.00000419  00000-0 -82364-5 0  9991,2 50803  53.2148 114.8744 0001167 101.8966 258.2157 15.08826994 64019
2023-02-23 09:43:16.122144,50803,15.08836800,0.00011470,53.2149,113.3867,109.2053,250.9063,0.00000366,0.00004110900000,1 50803U 22001A   23054.40504771  .00000366  00000-0  41109-4 0  9997,2 50803  53.2149 113.3867 0001147 109.2053 250.9063 15.08836800 64064
2023-02-23 12:54:01.912896,50803,15.08844440,0.00011300,53.2148,112.7929,96.2530,263.8591,0.00001078,0.00008581800000,1 50803U 22001A   23054.53752214  .00001078  00000-0  85818-4 0  9994,2 50803  53.2148 112.7929 0001130  96.2530 263.8591 15.08844440 62811
2023-02-23 20:50:57.626592,50803,15.08846382,0.00011670,53.2148,111.3061,94.0966,266.0160,-0.00000064,0.00001407200000,1 50803U 22001A   23054.86872253 -.00000064  00000-0  14072-4 0  9995,2 50803  53.2148 111.3061 0001167  94.0966 266.0160 15.08846382 62861
